2025-313AE              
1 67276U 25313AE  26018.60964997  .00007134  00000+0  33079-3 0  9998
2 67276  97.4084  95.7097 0014782 166.7543 193.4084 15.20270252  3203
2025-313AF              
1 67277U 25313AF  26018.60995117  .00006532  00000+0  30352-3 0  9999
2 67277  97.4087  95.7100 0014779 166.6654 193.4975 15.20232276  3203
2025-313AG              
1 67278U 25313AG  26018.60974839  .00006808  00000+0  31600-3 0  9991
2 67278  97.4089  95.7110 0014722 166.4891 193.6741 15.20250385  3211
GALAPAGOS-UTE-SWSU      
1 67279U 25313AH  26018.60896106  .00007568  00000+0  35000-3 0  9994
2 67279  97.4101  95.7149 0015291 163.5752 196.5982 15.20331386  3204
2025-313AJ              
1 67280U 25313AJ  26018.60439186  .00005447  00000+0  25094-3 0  9993
2 67280  97.4169  95.7277 0014235 160.3381 199.8407 15.20612223  3202
2025-313AK              
1 67281U 25313AK  26018.60313778  .00005519  00000+0  25363-3 0  9991
2 67281  97.4053  95.7081 0012949 159.1728 201.0037 15.20704373  3202
2025-313AL              
1 67282U 25313AL  26018.59806682  .00005712  00000+0  25962-3 0  9991
2 67282  97.4102  95.7163 0011722 158.1434 202.0305 15.21084317  3209
HORS 5                  
1 67283U 25313AM  26018.59693358  .00008203  00000+0  36974-3 0  9999
2 67283  97.4111  95.7203 0011595 157.9890 202.1846 15.21234120  3206
LOBACHEVSKY (RS83S)     
1 67284U 25313AN  26018.59831470  .00003620  00000+0  16604-3 0  9995
2 67284  97.4094  95.7137 0011609 158.0493 202.1243 15.21018825  3203
NASBSAT-2               
1 67285U 25313AP  26018.59599957  .00007971  00000+0  35884-3 0  9991
2 67285  97.4088  95.7144 0011219 159.3175 200.8517 15.21290653  3203
2025-313AQ              
1 67286U 25313AQ  26018.46389594  .00009216  00000+0  41449-3 0  9990
2 67286  97.4111  95.6002 0010906 154.8672 205.3097 15.21279398  3180
LUCA (RS90S)            
1 67287U 25313AR  26018.46303065  .00009543  00000+0  42743-3 0  9991
2 67287  97.4110  95.6018 0010809 156.5547 203.6184 15.21414743  3182
