CCSDS_OMM_VERS = 2.0
CREATION_DATE  = 
ORIGINATOR     = 

OBJECT_NAME    = 2025-313AE
OBJECT_ID      = 2025-313AE
CENTER_NAME    = EARTH
REF_FRAME      = TEME
TIME_SYSTEM    = UTC
MEAN_ELEMENT_THEORY = SGP/SGP4

EPOCH          = 2026-01-18T14:37:53.757408
MEAN_MOTION    = 15.20270252
ECCENTRICITY   = .00147822
INCLINATION    = 97.4084
RA_OF_ASC_NODE = 95.7097
ARG_OF_PERICENTER = 166.7543
MEAN_ANOMALY   = 193.4084

EPHEMERIS_TYPE = 0
CLASSIFICATION_TYPE = U
NORAD_CAT_ID   = 67276
ELEMENT_SET_NO = 999
REV_AT_EPOCH   = 320
BSTAR          = .3307942E-3
MEAN_MOTION_DOT = .7134E-4
MEAN_MOTION_DDOT = 0

CCSDS_OMM_VERS = 2.0
CREATION_DATE  = 
ORIGINATOR     = 

OBJECT_NAME    = 2025-313AF
OBJECT_ID      = 2025-313AF
CENTER_NAME    = EARTH
REF_FRAME      = TEME
TIME_SYSTEM    = UTC
MEAN_ELEMENT_THEORY = SGP/SGP4

EPOCH          = 2026-01-18T14:38:19.781088
MEAN_MOTION    = 15.20232276
ECCENTRICITY   = .00147792
INCLINATION    = 97.4087
RA_OF_ASC_NODE = 95.7100
ARG_OF_PERICENTER = 166.6654
MEAN_ANOMALY   = 193.4975

EPHEMERIS_TYPE = 0
CLASSIFICATION_TYPE = U
NORAD_CAT_ID   = 67277
ELEMENT_SET_NO = 999
REV_AT_EPOCH   = 320
BSTAR          = .30352099E-3
MEAN_MOTION_DOT = .6532E-4
MEAN_MOTION_DDOT = 0

CCSDS_OMM_VERS = 2.0
CREATION_DATE  = 
ORIGINATOR     = 

OBJECT_NAME    = 2025-313AG
OBJECT_ID      = 2025-313AG
CENTER_NAME    = EARTH
REF_FRAME      = TEME
TIME_SYSTEM    = UTC
MEAN_ELEMENT_THEORY = SGP/SGP4

EPOCH          = 2026-01-18T14:38:02.260896
MEAN_MOTION    = 15.20250385
ECCENTRICITY   = .00147221
INCLINATION    = 97.4089
RA_OF_ASC_NODE = 95.7110
ARG_OF_PERICENTER = 166.4891
MEAN_ANOMALY   = 193.6741

EPHEMERIS_TYPE = 0
CLASSIFICATION_TYPE = U
NORAD_CAT_ID   = 67278
ELEMENT_SET_NO = 999
REV_AT_EPOCH   = 321
BSTAR          = .31600336E-3
MEAN_MOTION_DOT = .6808E-4
MEAN_MOTION_DDOT = 0

CCSDS_OMM_VERS = 2.0
CREATION_DATE  = 
ORIGINATOR     = 

OBJECT_NAME    = GALAPAGOS-UTE-SWSU
OBJECT_ID      = 2025-313AH
CENTER_NAME    = EARTH
REF_FRAME      = TEME
TIME_SYSTEM    = UTC
MEAN_ELEMENT_THEORY = SGP/SGP4

EPOCH          = 2026-01-18T14:36:54.235584
MEAN_MOTION    = 15.20331386
ECCENTRICITY   = .00152918
INCLINATION    = 97.4101
RA_OF_ASC_NODE = 95.7149
ARG_OF_PERICENTER = 163.5752
MEAN_ANOMALY   = 196.5982

EPHEMERIS_TYPE = 0
CLASSIFICATION_TYPE = U
NORAD_CAT_ID   = 67279
ELEMENT_SET_NO = 999
REV_AT_EPOCH   = 320
BSTAR          = .34999602E-3
MEAN_MOTION_DOT = .7568E-4
MEAN_MOTION_DDOT = 0

CCSDS_OMM_VERS = 2.0
CREATION_DATE  = 
ORIGINATOR     = 

OBJECT_NAME    = 2025-313AJ
OBJECT_ID      = 2025-313AJ
CENTER_NAME    = EARTH
REF_FRAME      = TEME
TIME_SYSTEM    = UTC
MEAN_ELEMENT_THEORY = SGP/SGP4

EPOCH          = 2026-01-18T14:30:19.456704
MEAN_MOTION    = 15.20612223
ECCENTRICITY   = .00142358
INCLINATION    = 97.4169
RA_OF_ASC_NODE = 95.7277
ARG_OF_PERICENTER = 160.3381
MEAN_ANOMALY   = 199.8407

EPHEMERIS_TYPE = 0
CLASSIFICATION_TYPE = U
NORAD_CAT_ID   = 67280
ELEMENT_SET_NO = 999
REV_AT_EPOCH   = 320
BSTAR          = .25093943E-3
MEAN_MOTION_DOT = .5447E-4
MEAN_MOTION_DDOT = 0

CCSDS_OMM_VERS = 2.0
CREATION_DATE  = 
ORIGINATOR     = 

OBJECT_NAME    = 2025-313AK
OBJECT_ID      = 2025-313AK
CENTER_NAME    = EARTH
REF_FRAME      = TEME
TIME_SYSTEM    = UTC
MEAN_ELEMENT_THEORY = SGP/SGP4

EPOCH          = 2026-01-18T14:28:31.104192
MEAN_MOTION    = 15.20704373
ECCENTRICITY   = .00129495
INCLINATION    = 97.4053
RA_OF_ASC_NODE = 95.7081
ARG_OF_PERICENTER = 159.1728
MEAN_ANOMALY   = 201.0037

EPHEMERIS_TYPE = 0
CLASSIFICATION_TYPE = U
NORAD_CAT_ID   = 67281
ELEMENT_SET_NO = 999
REV_AT_EPOCH   = 320
BSTAR          = .25363363E-3
MEAN_MOTION_DOT = .5519E-4
MEAN_MOTION_DDOT = 0

CCSDS_OMM_VERS = 2.0
CREATION_DATE  = 
ORIGINATOR     = 

OBJECT_NAME    = 2025-313AL
OBJECT_ID      = 2025-313AL
CENTER_NAME    = EARTH
REF_FRAME      = TEME
TIME_SYSTEM    = UTC
MEAN_ELEMENT_THEORY = SGP/SGP4

EPOCH          = 2026-01-18T14:21:12.973248
MEAN_MOTION    = 15.21084317
ECCENTRICITY   = .00117222
INCLINATION    = 97.4102
RA_OF_ASC_NODE = 95.7163
ARG_OF_PERICENTER = 158.1434
MEAN_ANOMALY   = 202.0305

EPHEMERIS_TYPE = 0
CLASSIFICATION_TYPE = U
NORAD_CAT_ID   = 67282
ELEMENT_SET_NO = 999
REV_AT_EPOCH   = 320
BSTAR          = .25962088E-3
MEAN_MOTION_DOT = .5712E-4
MEAN_MOTION_DDOT = 0

CCSDS_OMM_VERS = 2.0
CREATION_DATE  = 
ORIGINATOR     = 

OBJECT_NAME    = HORS 5
OBJECT_ID      = 2025-313AM
CENTER_NAME    = EARTH
REF_FRAME      = TEME
TIME_SYSTEM    = UTC
MEAN_ELEMENT_THEORY = SGP/SGP4

EPOCH          = 2026-01-18T14:19:35.061312
MEAN_MOTION    = 15.21234120
ECCENTRICITY   = .00115959
INCLINATION    = 97.4111
RA_OF_ASC_NODE = 95.7203
ARG_OF_PERICENTER = 157.9890
MEAN_ANOMALY   = 202.1846

EPHEMERIS_TYPE = 0
CLASSIFICATION_TYPE = U
NORAD_CAT_ID   = 67283
ELEMENT_SET_NO = 999
REV_AT_EPOCH   = 320
BSTAR          = .36974424E-3
MEAN_MOTION_DOT = .8203E-4
MEAN_MOTION_DDOT = 0

CCSDS_OMM_VERS = 2.0
CREATION_DATE  = 
ORIGINATOR     = 

OBJECT_NAME    = LOBACHEVSKY (RS83S)
OBJECT_ID      = 2025-313AN
CENTER_NAME    = EARTH
REF_FRAME      = TEME
TIME_SYSTEM    = UTC
MEAN_ELEMENT_THEORY = SGP/SGP4

EPOCH          = 2026-01-18T14:21:34.390080
MEAN_MOTION    = 15.21018825
ECCENTRICITY   = .00116092
INCLINATION    = 97.4094
RA_OF_ASC_NODE = 95.7137
ARG_OF_PERICENTER = 158.0493
MEAN_ANOMALY   = 202.1243

EPHEMERIS_TYPE = 0
CLASSIFICATION_TYPE = U
NORAD_CAT_ID   = 67284
ELEMENT_SET_NO = 999
REV_AT_EPOCH   = 320
BSTAR          = .16603808E-3
MEAN_MOTION_DOT = .362E-4
MEAN_MOTION_DDOT = 0

CCSDS_OMM_VERS = 2.0
CREATION_DATE  = 
ORIGINATOR     = 

OBJECT_NAME    = NASBSAT-2
OBJECT_ID      = 2025-313AP
CENTER_NAME    = EARTH
REF_FRAME      = TEME
TIME_SYSTEM    = UTC
MEAN_ELEMENT_THEORY = SGP/SGP4

EPOCH          = 2026-01-18T14:18:14.362848
MEAN_MOTION    = 15.21290653
ECCENTRICITY   = .00112192
INCLINATION    = 97.4088
RA_OF_ASC_NODE = 95.7144
ARG_OF_PERICENTER = 159.3175
MEAN_ANOMALY   = 200.8517

EPHEMERIS_TYPE = 0
CLASSIFICATION_TYPE = U
NORAD_CAT_ID   = 67285
ELEMENT_SET_NO = 999
REV_AT_EPOCH   = 320
BSTAR          = .35883768E-3
MEAN_MOTION_DOT = .7971E-4
MEAN_MOTION_DDOT = 0

CCSDS_OMM_VERS = 2.0
CREATION_DATE  = 
ORIGINATOR     = 

OBJECT_NAME    = 2025-313AQ
OBJECT_ID      = 2025-313AQ
CENTER_NAME    = EARTH
REF_FRAME      = TEME
TIME_SYSTEM    = UTC
MEAN_ELEMENT_THEORY = SGP/SGP4

EPOCH          = 2026-01-18T11:08:00.609216
MEAN_MOTION    = 15.21279398
ECCENTRICITY   = .00109062
INCLINATION    = 97.4111
RA_OF_ASC_NODE = 95.6002
ARG_OF_PERICENTER = 154.8672
MEAN_ANOMALY   = 205.3097

EPHEMERIS_TYPE = 0
CLASSIFICATION_TYPE = U
NORAD_CAT_ID   = 67286
ELEMENT_SET_NO = 999
REV_AT_EPOCH   = 318
BSTAR          = .41448928E-3
MEAN_MOTION_DOT = .9216E-4
MEAN_MOTION_DDOT = 0

CCSDS_OMM_VERS = 2.0
CREATION_DATE  = 
ORIGINATOR     = 

OBJECT_NAME    = LUCA (RS90S)
OBJECT_ID      = 2025-313AR
CENTER_NAME    = EARTH
REF_FRAME      = TEME
TIME_SYSTEM    = UTC
MEAN_ELEMENT_THEORY = SGP/SGP4

EPOCH          = 2026-01-18T11:06:45.848160
MEAN_MOTION    = 15.21414743
ECCENTRICITY   = .00108096
INCLINATION    = 97.4110
RA_OF_ASC_NODE = 95.6018
ARG_OF_PERICENTER = 156.5547
MEAN_ANOMALY   = 203.6184

EPHEMERIS_TYPE = 0
CLASSIFICATION_TYPE = U
NORAD_CAT_ID   = 67287
ELEMENT_SET_NO = 999
REV_AT_EPOCH   = 318
BSTAR          = .42742768E-3
MEAN_MOTION_DOT = .9543E-4
MEAN_MOTION_DDOT = 0

